STARLINK-37450          
1 68818U 26089S   26117.53756586 -.00725727  18908-3 -11446-2 0  9997
2 68818  97.2854 322.6900 0000700 329.8637  30.2603 16.03881194   718
