{
  "norad_id": 68818,
  "name": "STARLINK-37450",
  "history": [
    {
      "epoch": "2026-04-27T12:54:05.690304Z",
      "apogee_km": 264.14705455185685,
      "perigee_km": 263.21719987404686,
      "latitude_deg": -9.289569619347418e-06,
      "longitude_deg": -86.35965956899102,
      "height_km": 266.48714451245587,
      "semi_major_axis_km": 6641.819127212952,
      "eccentricity": 7e-05,
      "inclination_deg": 97.2854,
      "raan_deg": 322.69,
      "arg_perigee_deg": 329.8637,
      "mean_anomaly_deg": 30.2603,
      "mean_motion_rev_day": 16.03881194
    }
  ]
}